IRIDIUM 112             
1 41925U 17003J   26015.41025470  .00000132  00000+0  40203-4 0  9997
2 41925  86.4009 152.1562 0001892 100.1788 259.9622 14.34216200471377
IRIDIUM 111             
1 41926U 17003K   26015.39757213 -.00000005  00000+0 -88860-5 0  9995
2 41926  86.4012 152.2286 0001968  96.5167 263.6253 14.34217541471358
IRIDIUM 113             
1 42803U 17039A   26015.51707251  .00000146  00000+0  44926-4 0  9998
2 42803  86.3957  25.9694 0002160  94.8641 265.2802 14.34217428449304
IRIDIUM 123             
1 42804U 17039B   26015.48878512 -.00000007  00000+0 -96240-5 0  9999
2 42804  86.3932  57.4643 0002391  94.3233 265.8236 14.34217477448063
IRIDIUM 120             
1 42805U 17039C   26015.51072963  .00000170  00000+0  53646-4 0  9991
2 42805  86.3944  25.7741 0002188  82.8506 277.2938 14.34217314449295
IRIDIUM 115             
1 42806U 17039D   26015.38272785  .00000287  00000+0  79428-4 0  9996
2 42806  86.4480  25.9356 0002700  85.3779 274.7730 14.43277707452227
IRIDIUM 118             
1 42807U 17039E   26015.17165362  .00000017  00000+0 -87346-6 0  9998
2 42807  86.3931  57.5956 0002062  98.0869 262.0561 14.34217864448019
IRIDIUM 117             
1 42808U 17039F   26015.46975705 -.00000020  00000+0 -14280-4 0  9991
2 42808  86.3931  57.4295 0002280  94.1474 265.9983 14.34217312448081
